{"fetched_at":"2026-03-29T02:12:04Z","count":15717,"tles":[{"name":"PLEIADES NEO 4","line1":"1 49070U 21073E   26086.77521645 -.00000381  00000+0 -41833-4 0  9998","line2":"2 49070  97.8927 162.7064 0001339  92.4294 267.7072 14.81672347249319","category":"Other"}]}