{
  "norad_id": 49070,
  "name": "PLEIADES NEO 4",
  "history": [
    {
      "epoch": "2026-03-27T18:36:18.701280",
      "apogee_km": 624.987906590879,
      "perigee_km": 623.1127208282669,
      "latitude_deg": 24.50429501442033,
      "longitude_deg": 145.42077920003794,
      "semi_major_axis_km": 7002.187313709573,
      "eccentricity": 0.0001339,
      "inclination_deg": 97.8927,
      "raan_deg": 162.7064,
      "arg_perigee_deg": 92.4294,
      "mean_anomaly_deg": 267.7072,
      "mean_motion_rev_day": 14.81672347
    }
  ]
}